NORAD_CAT_ID,OBJECT_NAME,OBJECT_TYPE,EPOCH,MEAN_MOTION,ECCENTRICITY,INCLINATION,RA_OF_ASC_NODE,ARG_OF_PERICENTER,MEAN_ANOMALY,BSTAR,MEAN_MOTION_DOT,MEAN_MOTION_DDOT,TLE_LINE0,TLE_LINE1,TLE_LINE2,SEMIMAJOR_AXIS,PERIOD,APOGEE,PERIGEE,DECAYED
54781.0,STARLINK-5443,PAYLOAD,2024-01-24 23:24:35,15.08839816,0.000131,53.2167,266.9662,118.3434,241.769,-1.7679e-05,-5.69e-06,0.0,0 STARLINK-5443,1 54781U 22175Z   24024.97540906 -.00000569  00000-0 -17679-4 0  9990,2 54781  53.2167 266.9662 0001310 118.3434 241.7690 15.08839816 63172,6917.881,95.438,540.652,538.84,0.0
54781.0,STARLINK-5443,PAYLOAD,2024-01-25 20:04:36,15.08847621,0.0001351,53.2168,263.0994,100.2906,259.8238,-0.00028525,-4.826e-05,0.0,0 STARLINK-5443,1 54781U 22175Z   24025.83653506 -.00004826  00000-0 -28525-3 0  9998,2 54781  53.2168 263.0994 0001351 100.2906 259.8238 15.08847621 61144,6917.857,95.437,540.657,538.787,0.0
54781.0,STARLINK-5443,PAYLOAD,2024-01-25 21:39:59,15.08849326,0.0001396,53.2166,262.8028,81.7002,278.4148,-0.00028774,-4.866e-05,0.0,0 STARLINK-5443,1 54781U 22175Z   24025.90277490 -.00004866  00000-0 -28774-3 0  9990,2 54781  53.2166 262.8028 0001396  81.7002 278.4148 15.08849326 63318,6917.852,95.437,540.683,538.751,0.0
54781.0,STARLINK-5443,PAYLOAD,2024-01-25 23:15:22,15.08849953,0.0001482,53.217,262.5043,80.7584,279.3575,-0.00024037,-4.113e-05,0.0,0 STARLINK-5443,1 54781U 22175Z   24025.96901311 -.00004113  00000-0 -24037-3 0  9995,2 54781  53.2170 262.5043 0001482  80.7584 279.3575 15.08849953 63328,6917.85,95.437,540.74,538.69,0.0
54781.0,STARLINK-5443,PAYLOAD,2024-01-26 23:06:09,15.08842176,0.000177,53.2172,258.0472,64.521,295.5965,0.0002595,3.845e-05,0.0,0 STARLINK-5443,1 54781U 22175Z   24026.96260848  .00003845  00000-0  25950-3 0  9993,2 54781  53.2172 258.0472 0001770  64.5210 295.5965 15.08842176 61312,6917.874,95.437,540.963,538.514,0.0
54781.0,STARLINK-5443,PAYLOAD,2024-01-27 19:46:10,15.08840926,0.0001424,53.2169,254.1796,84.9774,275.1381,8.8367e-05,1.119e-05,0.0,0 STARLINK-5443,1 54781U 22175Z   24027.82373576  .00001119  00000-0  88367-4 0  9996,2 54781  53.2169 254.1796 0001424  84.9774 275.1381 15.08840926 61442,6917.878,95.437,540.728,538.757,0.0
54781.0,STARLINK-5443,PAYLOAD,2024-01-27 21:21:34,15.08823757,0.0001833,53.2178,253.8805,66.4297,293.6888,0.00025775,3.815e-05,0.0,0 STARLINK-5443,1 54781U 22175Z   24027.88998217  .00003815  00000-0  25775-3 0  9995,2 54781  53.2178 253.8805 0001833  66.4297 293.6888 15.08823757 63619,6917.93,95.439,541.063,538.527,0.0
54781.0,STARLINK-5443,PAYLOAD,2024-01-28 19:36:57,15.08849674,0.0001395,53.2183,249.7199,87.5213,272.5938,-0.00010955,-2.031e-05,0.0,0 STARLINK-5443,1 54781U 22175Z   24028.81733562 -.00002031  00000-0 -10955-3 0  9994,2 54781  53.2183 249.7199 0001395  87.5213 272.5938 15.08849674 61593,6917.851,95.437,540.681,538.751,0.0
54781.0,STARLINK-5443,PAYLOAD,2024-01-28 21:12:20,15.08848773,0.0001456,53.2177,249.4212,89.9135,270.2024,-8.5354e-05,-1.646e-05,0.0,0 STARLINK-5443,1 54781U 22175Z   24028.88357481 -.00001646  00000-0 -85354-4 0  9990,2 54781  53.2177 249.4212 0001456  89.9135 270.2024 15.08848773 63767,6917.854,95.437,540.726,538.711,0.0
54781.0,STARLINK-5443,PAYLOAD,2024-01-29 14:41:35,15.08839433,0.0001502,53.2174,246.1499,98.5726,261.5436,9.4507e-05,1.216e-05,0.0,0 STARLINK-5443,1 54781U 22175Z   24029.61221489  .00001216  00000-0  94507-4 0  9991,2 54781  53.2174 246.1499 0001502  98.5726 261.5436 15.08839433 63874,6917.882,95.438,540.786,538.708,0.0
54781.0,STARLINK-5443,PAYLOAD,2024-01-30 00:13:53,15.08843294,0.0001542,53.2173,244.3656,100.3787,259.7379,0.00011669,1.57e-05,0.0,0 STARLINK-5443,1 54781U 22175Z   24030.00965176  .00001570  00000-0  11669-3 0  9994,2 54781  53.2173 244.3656 0001542 100.3787 259.7379 15.08843294 61773,6917.87,95.437,540.802,538.669,0.0
54781.0,STARLINK-5443,PAYLOAD,2024-01-30 19:18:32,15.08836656,0.0001613,53.2172,240.7964,107.3715,252.7454,4.8597e-05,4.85e-06,0.0,0 STARLINK-5443,1 54781U 22175Z   24030.80453857  .00000485  00000-0  48597-4 0  9995,2 54781  53.2172 240.7964 0001613 107.3715 252.7454 15.08836656 61895,6917.891,95.438,540.871,538.64,0.0
54781.0,STARLINK-5443,PAYLOAD,2024-01-31 14:23:09,15.0883841,0.0001726,53.2167,237.2265,110.7662,249.3515,2.6797e-05,1.38e-06,0.0,0 STARLINK-5443,1 54781U 22175Z   24031.59941889  .00000138  00000-0  26797-4 0  9992,2 54781  53.2167 237.2265 0001726 110.7662 249.3515 15.08838410 64172,6917.885,95.438,540.944,538.556,0.0
54781.0,STARLINK-5443,PAYLOAD,2024-01-31 23:55:28,15.08835933,0.0001653,53.2169,235.4442,105.4828,254.6347,-3.9023e-06,-3.5e-06,0.0,0 STARLINK-5443,1 54781U 22175Z   24031.99686248 -.00000350  00000-0 -39023-5 0  9996,2 54781  53.2169 235.4442 0001653 105.4828 254.6347 15.08835933 62071,6917.893,95.438,540.901,538.614,0.0
54781.0,STARLINK-5443,PAYLOAD,2024-02-01 23:46:16,15.08835982,0.0001432,53.2163,230.9854,95.7042,264.4114,5.8602e-05,6.45e-06,0.0,0 STARLINK-5443,1 54781U 22175Z   24032.99046383  .00000645  00000-0  58602-4 0  9995,2 54781  53.2163 230.9854 0001432  95.7042 264.4114 15.08835982 64387,6917.893,95.438,540.748,538.767,0.0
54781.0,STARLINK-5443,PAYLOAD,2024-02-02 18:50:53,15.08838234,0.0001352,53.2164,227.4168,93.0505,267.0642,6.7496e-05,7.86e-06,0.0,0 STARLINK-5443,1 54781U 22175Z   24033.78534388  .00000786  00000-0  67496-4 0  9997,2 54781  53.2164 227.4168 0001352  93.0505 267.0642 15.08838234 62345,6917.886,95.438,540.686,538.815,0.0
54781.0,STARLINK-5443,PAYLOAD,2024-02-02 20:26:16,15.08839047,0.0001365,53.2165,227.1191,91.7066,268.4082,7.3415e-05,8.81e-06,0.0,0 STARLINK-5443,1 54781U 22175Z   24033.85158319  .00000881  00000-0  73415-4 0  9995,2 54781  53.2165 227.1191 0001365  91.7066 268.4082 15.08839047 64517,6917.883,95.438,540.693,538.804,0.0
54781.0,STARLINK-5443,PAYLOAD,2024-02-03 12:20:08,15.088416,0.0001376,53.2166,224.1459,88.9711,271.1438,8.89e-05,1.127e-05,0.0,0 STARLINK-5443,1 54781U 22175Z   24034.51398210  .00001127  00000-0  88900-4 0  9994,2 54781  53.2166 224.1459 0001376  88.9711 271.1438 15.08841600 64614,6917.875,95.437,540.692,538.789,0.0
54781.0,STARLINK-5443,PAYLOAD,2024-02-03 20:17:03,15.08844649,0.0001371,53.2165,222.6595,89.0764,271.0385,0.00010798,1.431e-05,0.0,0 STARLINK-5443,1 54781U 22175Z   24034.84517887  .00001431  00000-0  10798-3 0  9990,2 54781  53.2165 222.6595 0001371  89.0764 271.0385 15.08844649 64663,6917.866,95.437,540.68,538.783,0.0
54781.0,STARLINK-5443,PAYLOAD,2024-02-04 12:10:54,15.08842903,0.0001387,53.2166,219.6862,89.35,270.7651,8.2341e-05,1.023e-05,0.0,0 STARLINK-5443,1 54781U 22175Z   24035.50758060  .00001023  00000-0  82341-4 0  9995,2 54781  53.2166 219.6862 0001387  89.3500 270.7651 15.08842903 64769,6917.872,95.437,540.696,538.777,0.0
54781.0,STARLINK-5443,PAYLOAD,2024-02-04 18:32:27,15.08844675,0.000138,53.2166,218.4969,88.6555,271.4595,6.3488e-05,7.23e-06,0.0,0 STARLINK-5443,1 54781U 22175Z   24035.77253952  .00000723  00000-0  63488-4 0  9991,2 54781  53.2166 218.4969 0001380  88.6555 271.4595 15.08844675 64807,6917.866,95.437,540.686,538.776,0.0
54781.0,STARLINK-5443,PAYLOAD,2024-02-05 12:01:42,15.08841831,0.000143,53.2168,215.2261,90.5109,269.6047,1.9957e-05,3e-07,0.0,0 STARLINK-5443,1 54781U 22175Z   24036.50118115  .00000030  00000-0  19957-4 0  9997,2 54781  53.2168 215.2261 0001430  90.5109 269.6047 15.08841831 62756,6917.875,95.437,540.729,538.751,0.0
54781.0,STARLINK-5443,PAYLOAD,2024-02-05 18:23:14,15.08841974,0.0001414,53.2172,214.0366,91.1794,268.936,1.4577e-05,-5.6e-07,0.0,0 STARLINK-5443,1 54781U 22175Z   24036.76614057 -.00000056  00000-0  14577-4 0  9993,2 54781  53.2172 214.0366 0001414  91.1794 268.9360 15.08841974 64955,6917.874,95.437,540.718,538.761,0.0
54781.0,STARLINK-5443,PAYLOAD,2024-02-06 18:14:01,15.08840952,0.0001354,53.217,209.5759,96.652,263.4626,3.683e-05,2.98e-06,0.0,0 STARLINK-5443,1 54781U 22175Z   24037.75973967  .00000298  00000-0  36830-4 0  9994,2 54781  53.2170 209.5759 0001354  96.6520 263.4626 15.08840952 62945,6917.877,95.437,540.679,538.806,0.0
54781.0,STARLINK-5443,PAYLOAD,2024-02-06 21:24:47,15.08843795,0.000135,53.2167,208.9799,102.7587,257.3556,5.4626e-05,5.82e-06,0.0,0 STARLINK-5443,1 54781U 22175Z   24037.89221699  .00000582  00000-0  54626-4 0  9996,2 54781  53.2167 208.9799 0001350 102.7587 257.3556 15.08843795 65121,6917.869,95.437,540.668,538.8,0.0
54781.0,STARLINK-5443,PAYLOAD,2024-02-07 14:54:02,15.08837058,0.0001385,53.2168,205.706,105.5721,254.5424,2.0358e-05,3.6e-07,0.0,0 STARLINK-5443,1 54781U 22175Z   24038.62086356  .00000036  00000-0  20358-4 0  9996,2 54781  53.2168 205.7060 0001385 105.5721 254.5424 15.08837058 65237,6917.889,95.438,540.713,538.796,0.0
54781.0,STARLINK-5443,PAYLOAD,2024-02-07 21:15:34,15.08841027,0.0001148,53.2166,204.518,84.5512,275.5611,3.6689e-05,2.96e-06,0.0,0 STARLINK-5443,1 54781U 22175Z   24038.88582069  .00000296  00000-0  36689-4 0  9998,2 54781  53.2166 204.5180 0001148  84.5512 275.5611 15.08841027 65272,6917.877,95.437,540.536,538.948,0.0
54781.0,STARLINK-5443,PAYLOAD,2024-02-08 09:58:40,15.08834553,0.0001529,53.2168,202.1412,81.0195,279.097,-4.8752e-05,-1.064e-05,0.0,0 STARLINK-5443,1 54781U 22175Z   24039.41575209 -.00001064  00000-0 -48752-4 0  9996,2 54781  53.2168 202.1412 0001529  81.0195 279.0970 15.08834553 63190,6917.897,95.438,540.82,538.704,0.0
54781.0,STARLINK-5443,PAYLOAD,2024-02-08 14:44:50,15.08830409,0.0001151,53.2173,201.2507,90.46,269.6524,-0.00010624,-1.978e-05,0.0,0 STARLINK-5443,1 54781U 22175Z   24039.61447638 -.00001978  00000-0 -10624-3 0  9992,2 54781  53.2173 201.2507 0001151  90.4600 269.6524 15.08830409 65386,6917.91,95.438,540.571,538.978,0.0
54781.0,STARLINK-5443,PAYLOAD,2024-02-08 16:20:13,15.08830723,0.0001142,53.2173,200.9534,91.4587,268.6536,-0.00010484,-1.955e-05,0.0,0 STARLINK-5443,1 54781U 22175Z   24039.68071642 -.00001955  00000-0 -10484-3 0  9996,2 54781  53.2173 200.9534 0001142  91.4587 268.6536 15.08830723 65399,6917.909,95.438,540.564,538.984,0.0
